BEIDOU-3S IGSO-1S       
1 40549U 15019A   26154.87108398 -.00000164  00000+0  00000+0 0  9990
2 40549  49.2213 295.6213 0038494 191.1761 171.6675  1.00254002 40941
NAVSTAR 74 (USA 262)    
1 40730U 15033A   26153.76177310 -.00000027  00000+0  00000+0 0  9993
2 40730  53.9939 267.6813 0115044  30.1673 330.5059  2.00557138 79701
BEIDOU-3S M2S           
1 40748U 15037A   26153.28873813 -.00000070  00000+0  00000+0 0  9992
2 40748  54.8844 302.5583 0007848 262.7057  97.1823  1.86232274 73847
BEIDOU-3S M1S           
1 40749U 15037B   26154.57173103 -.00000062  00000+0  00000+0 0  9992
2 40749  54.8802 302.5027 0003703  59.9652 300.0537  1.86254987 73874
GSAT0205 (GALILEO 9)    
1 40889U 15045A   26144.30399159 -.00000014  00000+0  00000+0 0  9994
2 40889  54.9357 222.4171 0006405 263.0112  96.9692  1.67409242 66562
GSAT0206 (GALILEO 10)   
1 40890U 15045B   26153.20614353  .00000037  00000+0  00000+0 0  9995
2 40890  54.9487 222.0183 0001691 340.6304  19.4569  1.70474042 66785
BEIDOU-3S IGSO-2S       
1 40938U 15053A   26154.76900250 -.00000130  00000+0  00000+0 0  9998
2 40938  49.2433 258.9423 0064941 192.1078 173.8319  1.00263058 39229
NAVSTAR 75 (USA 265)    
1 41019U 15062A   26151.32556150 -.00000085  00000+0  00000+0 0  9993
2 41019  56.9483  31.4607 0111528 231.2232 127.8246  2.00567194 77497
GSAT-15                 
1 41028U 15065A   26155.16136086 -.00000246  00000+0  00000+0 0  9993
2 41028   0.0453 116.8999 0004238 317.4659 329.8490  1.00271256 38666
GSAT0209 (GALILEO 12)   
1 41174U 15079A   26153.37408116  .00000003  00000+0  00000+0 0  9997
2 41174  55.8190 101.6681 0005486 338.3855  21.5417  1.70473980 64524
GSAT0208 (GALILEO 11)   
1 41175U 15079B   26154.18097635  .00000008  00000+0  00000+0 0  9993
2 41175  55.8180 101.6428 0004856 341.4145  18.5225  1.70473818 64950
IRNSS-1E                
1 41241U 16003A   26154.66032678 -.00000301  00000+0  00000+0 0  9991
2 41241  33.2059  59.9463 0017866 179.9869   1.6722  1.00271426 37943
NAVSTAR 76 (USA 266)    
1 41328U 16007A   26152.91118392 -.00000022  00000+0  00000+0 0  9995
2 41328  55.5151  90.0651 0096340 247.3878 111.5659  2.00552626 75530
COSMOS 2514 [GLONASS-M] 
1 41330U 16008A   26154.67662641 -.00000041  00000+0  00000+0 0  9996
2 41330  65.0303 313.4702 0010771 197.2155 162.7371  2.13102715 80339
BEIDOU-2 IGSO-6         
1 41434U 16021A   26154.65634010 -.00000145  00000+0  00000+0 0  9998
2 41434  60.2067  38.1749 0057320 231.5636 312.2967  1.00262467 37349
IRNSS-1G                
1 41469U 16027A   26154.93308472 -.00000323  00000+0  00000+0 0  9991
2 41469   5.1656  97.7791 0007422 351.4968 268.6051  1.00272935 37041
GSAT0211 (GALILEO 14)   
1 41549U 16030A   26153.13186841  .00000037  00000+0  00000+0 0  9990
2 41549  55.0991 222.1092 0002706 330.2266  29.8517  1.70474145 62417
GSAT0210 (GALILEO 13)   
1 41550U 16030B   26153.38914289  .00000038  00000+0  00000+0 0  9995
2 41550  55.0982 222.1002 0003345 232.8664 127.1968  1.70474245 62412
BEIDOU-2 G7             
1 41586U 16037A   26155.01658103 -.00000342  00000+0  00000+0 0  9992
2 41586   1.6878  69.2112 0007348   0.3118 299.4820  1.00271896  6758
EUTELSAT 117 WEST B     
1 41589U 16038B   26154.97156284  .00000001  00000+0  00000+0 0  9994
2 41589   0.0083 140.1659 0000250 186.4691 158.5591  1.00268789 36530
GSAT0207 (GALILEO 15)   
1 41859U 16069A   26154.84050470  .00000010  00000+0  00000+0 0  9994
2 41859  55.4909 101.4554 0005523 326.1411  33.7823  1.70473800 59172
GSAT0212 (GALILEO 16)   
1 41860U 16069B   26154.10735617  .00000006  00000+0  00000+0 0  9993
2 41860  55.4882 101.4709 0004693 352.8898   7.0579  1.70474020 59412
GSAT0213 (GALILEO 17)   
1 41861U 16069C   26150.95509963 -.00000006  00000+0  00000+0 0  9997
2 41861  55.4878 101.5659 0005372 310.5840  49.3122  1.70474449 59223
GSAT0214 (GALILEO 18)   
1 41862U 16069D   26153.44763053  .00000003  00000+0  00000+0 0  9993
2 41862  55.4887 101.4896 0004423 316.8165  43.0998  1.70474054 59393
SES-15                  
1 42709U 17026A   26155.22877433  .00000072  00000+0  00000+0 0  9990
2 42709   0.0197 332.8854 0000717  95.7166 137.2774  1.00270135  7303
QZS-2 (MICHIBIKI-2)     
1 42738U 17028A   26154.60922439 -.00000158  00000+0  00000+0 0  9998
2 42738  39.4485 243.3546 0759590 269.1264 100.0088  1.00287507  7498
QZS-3 (MICHIBIKI-3)     
1 42917U 17048A   26155.01987438 -.00000336  00000+0  00000+0 0  9993
2 42917   0.0611 196.3104 0002885 246.0776 304.2764  1.00272502 32125
COSMOS 2522 [GLONASS-M] 
1 42939U 17055A   26153.10670400  .00000070  00000+0  00000+0 0  9995
2 42939  64.0774 192.3978 0010513 239.6203 120.3566  2.13102000 67657
QZS-4 (MICHIBIKI-4)     
1 42965U 17062A   26154.84211516 -.00000324  00000+0  00000+0 0  9996
2 42965  40.1163 343.6531 0744810 271.5248  78.3172  1.00255682 31664
BEIDOU-3 M1             
1 43001U 17069A   26154.17216962 -.00000047  00000+0  00000+0 0  9993
2 43001  56.6802  63.5462 0010988 322.8925  37.0519  1.86231656 58343
BEIDOU-3 M2             
1 43002U 17069B   26151.96304775 -.00000066  00000+0  00000+0 0  9999
2 43002  56.6782  63.6543 0009614 347.1682  12.8156  1.86230808 58296
